[{"OBJECT_NAME":"JILIN-1 GAOFEN 03D47","OBJECT_ID":"2022-167L","EPOCH":"2026-03-09T22:56:46.924224","MEAN_MOTION":15.31686941,"ECCENTRICITY":0.00089304,"INCLINATION":97.6835,"RA_OF_ASC_NODE":234.6581,"ARG_OF_PERICENTER":110.4031,"MEAN_ANOMALY":249.8169,"EPHEMERIS_TYPE":0,"CLASSIFICATION_TYPE":"U","NORAD_CAT_ID":54692,"ELEMENT_SET_NO":999,"REV_AT_EPOCH":18014,"BSTAR":0.00047294748,"MEAN_MOTION_DOT":0.00014417,"MEAN_MOTION_DDOT":0},{"OBJECT_NAME":"STARLINK-35345","OBJECT_ID":"2025-221L","EPOCH":"2026-03-09T08:26:54.615264","MEAN_MOTION":15.30204197,"ECCENTRICITY":0.00012905,"INCLINATION":53.1584,"RA_OF_ASC_NODE":89.7746,"ARG_OF_PERICENTER":88.4744,"MEAN_ANOMALY":271.6405,"EPHEMERIS_TYPE":0,"CLASSIFICATION_TYPE":"U","NORAD_CAT_ID":65833,"ELEMENT_SET_NO":999,"REV_AT_EPOCH":2603,"BSTAR":0.001009766,"MEAN_MOTION_DOT":0.00029671,"MEAN_MOTION_DDOT":0}]
